CCSDS_OMM_VERS = 2.0
CREATION_DATE  = 
ORIGINATOR     = 

OBJECT_NAME    = SL-4 R/B
OBJECT_ID      = 2014-021B
CENTER_NAME    = EARTH
REF_FRAME      = TEME
TIME_SYSTEM    = UTC
MEAN_ELEMENT_THEORY = SGP/SGP4

EPOCH          = 2026-02-16T10:58:23.519424
MEAN_MOTION    = 15.38453190
ECCENTRICITY   = .00989212
INCLINATION    = 51.6060
RA_OF_ASC_NODE = 80.8012
ARG_OF_PERICENTER = 25.6150
MEAN_ANOMALY   = 334.9687

EPHEMERIS_TYPE = 0
CLASSIFICATION_TYPE = U
NORAD_CAT_ID   = 39679
ELEMENT_SET_NO = 999
REV_AT_EPOCH   = 65300
BSTAR          = .30505931E-3
MEAN_MOTION_DOT = .13491E-3
MEAN_MOTION_DDOT = 0

CCSDS_OMM_VERS = 2.0
CREATION_DATE  = 
ORIGINATOR     = 

OBJECT_NAME    = ALOS-2
OBJECT_ID      = 2014-029A
CENTER_NAME    = EARTH
REF_FRAME      = TEME
TIME_SYSTEM    = UTC
MEAN_ELEMENT_THEORY = SGP/SGP4

EPOCH          = 2026-02-16T13:11:43.093248
MEAN_MOTION    = 14.79462926
ECCENTRICITY   = .00015758
INCLINATION    = 97.9212
RA_OF_ASC_NODE = 146.4524
ARG_OF_PERICENTER = 104.6003
MEAN_ANOMALY   = 255.5384

EPHEMERIS_TYPE = 0
CLASSIFICATION_TYPE = U
NORAD_CAT_ID   = 39766
ELEMENT_SET_NO = 999
REV_AT_EPOCH   = 63374
BSTAR          = .50111608E-4
MEAN_MOTION_DOT = .323E-5
MEAN_MOTION_DDOT = 0

CCSDS_OMM_VERS = 2.0
CREATION_DATE  = 
ORIGINATOR     = 

OBJECT_NAME    = YAOGAN-29
OBJECT_ID      = 2015-069A
CENTER_NAME    = EARTH
REF_FRAME      = TEME
TIME_SYSTEM    = UTC
MEAN_ELEMENT_THEORY = SGP/SGP4

EPOCH          = 2026-02-16T14:35:34.686240
MEAN_MOTION    = 14.82969253
ECCENTRICITY   = .00028082
INCLINATION    = 98.0168
RA_OF_ASC_NODE = 75.9790
ARG_OF_PERICENTER = 69.7307
MEAN_ANOMALY   = 290.4208

EPHEMERIS_TYPE = 0
CLASSIFICATION_TYPE = U
NORAD_CAT_ID   = 41038
ELEMENT_SET_NO = 999
REV_AT_EPOCH   = 55275
BSTAR          = .13228131E-4
MEAN_MOTION_DOT = .53E-6
MEAN_MOTION_DDOT = 0

CCSDS_OMM_VERS = 2.0
CREATION_DATE  = 
ORIGINATOR     = 

OBJECT_NAME    = ASTRO-H (HITOMI)
OBJECT_ID      = 2016-012A
CENTER_NAME    = EARTH
REF_FRAME      = TEME
TIME_SYSTEM    = UTC
MEAN_ELEMENT_THEORY = SGP/SGP4

EPOCH          = 2026-02-16T13:06:32.280480
MEAN_MOTION    = 15.09847977
ECCENTRICITY   = .00098524
INCLINATION    = 30.9990
RA_OF_ASC_NODE = 132.9736
ARG_OF_PERICENTER = 120.4236
MEAN_ANOMALY   = 239.7377

EPHEMERIS_TYPE = 0
CLASSIFICATION_TYPE = U
NORAD_CAT_ID   = 41337
ELEMENT_SET_NO = 999
REV_AT_EPOCH   = 54903
BSTAR          = .20694085E-3
MEAN_MOTION_DOT = .3529E-4
MEAN_MOTION_DDOT = 0

CCSDS_OMM_VERS = 2.0
CREATION_DATE  = 
ORIGINATOR     = 

OBJECT_NAME    = HXMT (HUIYAN)
OBJECT_ID      = 2017-034A
CENTER_NAME    = EARTH
REF_FRAME      = TEME
TIME_SYSTEM    = UTC
MEAN_ELEMENT_THEORY = SGP/SGP4

EPOCH          = 2026-02-16T13:56:13.691328
MEAN_MOTION    = 15.17189069
ECCENTRICITY   = .00305511
INCLINATION    = 43.0145
RA_OF_ASC_NODE = 134.0045
ARG_OF_PERICENTER = 101.6725
MEAN_ANOMALY   = 258.7555

EPHEMERIS_TYPE = 0
CLASSIFICATION_TYPE = U
NORAD_CAT_ID   = 42758
ELEMENT_SET_NO = 999
REV_AT_EPOCH   = 47933
BSTAR          = .36307708E-3
MEAN_MOTION_DOT = .7196E-4
MEAN_MOTION_DDOT = 0

CCSDS_OMM_VERS = 2.0
CREATION_DATE  = 
ORIGINATOR     = 

OBJECT_NAME    = CZ-2C R/B
OBJECT_ID      = 2018-054D
CENTER_NAME    = EARTH
REF_FRAME      = TEME
TIME_SYSTEM    = UTC
MEAN_ELEMENT_THEORY = SGP/SGP4

EPOCH          = 2026-02-16T11:57:31.913856
MEAN_MOTION    = 16.03331416
ECCENTRICITY   = .00115469
INCLINATION    = 35.1278
RA_OF_ASC_NODE = 87.8268
ARG_OF_PERICENTER = 104.2796
MEAN_ANOMALY   = 255.9229

EPHEMERIS_TYPE = 0
CLASSIFICATION_TYPE = U
NORAD_CAT_ID   = 43521
ELEMENT_SET_NO = 999
REV_AT_EPOCH   = 42549
BSTAR          = .86552559E-3
MEAN_MOTION_DOT = .570705E-2
MEAN_MOTION_DDOT = .14817986E-3

CCSDS_OMM_VERS = 2.0
CREATION_DATE  = 
ORIGINATOR     = 

OBJECT_NAME    = SAOCOM 1A
OBJECT_ID      = 2018-076A
CENTER_NAME    = EARTH
REF_FRAME      = TEME
TIME_SYSTEM    = UTC
MEAN_ELEMENT_THEORY = SGP/SGP4

EPOCH          = 2026-02-16T13:29:32.252640
MEAN_MOTION    = 14.82145193
ECCENTRICITY   = .00013782
INCLINATION    = 97.8872
RA_OF_ASC_NODE = 236.0337
ARG_OF_PERICENTER = 80.5750
MEAN_ANOMALY   = 279.5619

EPHEMERIS_TYPE = 0
CLASSIFICATION_TYPE = U
NORAD_CAT_ID   = 43641
ELEMENT_SET_NO = 999
REV_AT_EPOCH   = 39823
BSTAR          = .64034864E-4
MEAN_MOTION_DOT = .457E-5
MEAN_MOTION_DDOT = 0

CCSDS_OMM_VERS = 2.0
CREATION_DATE  = 
ORIGINATOR     = 

OBJECT_NAME    = H-2A R/B
OBJECT_ID      = 2018-084L
CENTER_NAME    = EARTH
REF_FRAME      = TEME
TIME_SYSTEM    = UTC
MEAN_ELEMENT_THEORY = SGP/SGP4

EPOCH          = 2026-02-16T13:29:53.541600
MEAN_MOTION    = 15.40401200
ECCENTRICITY   = .00263821
INCLINATION    = 98.8749
RA_OF_ASC_NODE = 260.4503
ARG_OF_PERICENTER = 96.1397
MEAN_ANOMALY   = 264.2852

EPHEMERIS_TYPE = 0
CLASSIFICATION_TYPE = U
NORAD_CAT_ID   = 43682
ELEMENT_SET_NO = 999
REV_AT_EPOCH   = 40252
BSTAR          = .52323553E-3
MEAN_MOTION_DOT = .21337E-3
MEAN_MOTION_DDOT = 0

CCSDS_OMM_VERS = 2.0
CREATION_DATE  = 
ORIGINATOR     = 

OBJECT_NAME    = SAOCOM 1B
OBJECT_ID      = 2020-059A
CENTER_NAME    = EARTH
REF_FRAME      = TEME
TIME_SYSTEM    = UTC
MEAN_ELEMENT_THEORY = SGP/SGP4

EPOCH          = 2026-02-16T14:14:33.456192
MEAN_MOTION    = 14.82146200
ECCENTRICITY   = .00014396
INCLINATION    = 97.8869
RA_OF_ASC_NODE = 235.1622
ARG_OF_PERICENTER = 85.5977
MEAN_ANOMALY   = 274.5400

EPHEMERIS_TYPE = 0
CLASSIFICATION_TYPE = U
NORAD_CAT_ID   = 46265
ELEMENT_SET_NO = 999
REV_AT_EPOCH   = 29562
BSTAR          = .30404048E-4
MEAN_MOTION_DOT = .19E-5
MEAN_MOTION_DDOT = 0

CCSDS_OMM_VERS = 2.0
CREATION_DATE  = 
ORIGINATOR     = 

OBJECT_NAME    = CSS (TIANHE)
OBJECT_ID      = 2021-035A
CENTER_NAME    = EARTH
REF_FRAME      = TEME
TIME_SYSTEM    = UTC
MEAN_ELEMENT_THEORY = SGP/SGP4

EPOCH          = 2026-02-16T11:07:44.640768
MEAN_MOTION    = 15.59725445
ECCENTRICITY   = .0004139
INCLINATION    = 41.4685
RA_OF_ASC_NODE = 337.2223
ARG_OF_PERICENTER = 115.2170
MEAN_ANOMALY   = 244.9098

EPHEMERIS_TYPE = 0
CLASSIFICATION_TYPE = U
NORAD_CAT_ID   = 48274
ELEMENT_SET_NO = 999
REV_AT_EPOCH   = 27429
BSTAR          = .35509177E-3
MEAN_MOTION_DOT = .29005E-3
MEAN_MOTION_DDOT = 0

CCSDS_OMM_VERS = 2.0
CREATION_DATE  = 
ORIGINATOR     = 

OBJECT_NAME    = COSMOS 2550
OBJECT_ID      = 2021-056A
CENTER_NAME    = EARTH
REF_FRAME      = TEME
TIME_SYSTEM    = UTC
MEAN_ELEMENT_THEORY = SGP/SGP4

EPOCH          = 2026-02-15T17:42:43.325280
MEAN_MOTION    = 15.33826475
ECCENTRICITY   = .0008396
INCLINATION    = 67.1426
RA_OF_ASC_NODE = 107.3331
ARG_OF_PERICENTER = 269.7676
MEAN_ANOMALY   = 90.2516

EPHEMERIS_TYPE = 0
CLASSIFICATION_TYPE = U
NORAD_CAT_ID   = 48865
ELEMENT_SET_NO = 999
REV_AT_EPOCH   = 26009
BSTAR          = .4102791E-5
MEAN_MOTION_DOT = -.57E-6
MEAN_MOTION_DDOT = 0

CCSDS_OMM_VERS = 2.0
CREATION_DATE  = 
ORIGINATOR     = 

OBJECT_NAME    = CZ-2C R/B
OBJECT_ID      = 2022-058K
CENTER_NAME    = EARTH
REF_FRAME      = TEME
TIME_SYSTEM    = UTC
MEAN_ELEMENT_THEORY = SGP/SGP4

EPOCH          = 2026-02-16T06:50:09.379392
MEAN_MOTION    = 15.52689384
ECCENTRICITY   = .0042136
INCLINATION    = 50.1881
RA_OF_ASC_NODE = 68.2641
ARG_OF_PERICENTER = 109.7074
MEAN_ANOMALY   = 250.8449

EPHEMERIS_TYPE = 0
CLASSIFICATION_TYPE = U
NORAD_CAT_ID   = 52794
ELEMENT_SET_NO = 999
REV_AT_EPOCH   = 20680
BSTAR          = .53296E-3
MEAN_MOTION_DOT = .34476E-3
MEAN_MOTION_DDOT = 0

