SL-4 R/B                
1 39679U 14021B   26047.45721666  .00013491  00000+0  30506-3 0  9992
2 39679  51.6060  80.8012 0098921  25.6150 334.9687 15.38453190653004
ALOS-2                  
1 39766U 14029A   26047.54980432  .00000323  00000+0  50112-4 0  9991
2 39766  97.9212 146.4524 0001575 104.6003 255.5384 14.79462926633746
YAOGAN-29               
1 41038U 15069A   26047.60804035  .00000053  00000+0  13228-4 0  9999
2 41038  98.0168  75.9790 0002808  69.7307 290.4208 14.82969253552755
ASTRO-H (HITOMI)        
1 41337U 16012A   26047.54620695  .00003529  00000+0  20694-3 0  9996
2 41337  30.9990 132.9736 0009852 120.4236 239.7377 15.09847977549039
HXMT (HUIYAN)           
1 42758U 17034A   26047.58071402  .00007196  00000+0  36308-3 0  9992
2 42758  43.0145 134.0045 0030551 101.6725 258.7555 15.17189069479338
CZ-2C R/B               
1 43521U 18054D   26047.49828604  .00570705  14818-3  86553-3 0  9992
2 43521  35.1278  87.8268 0011546 104.2796 255.9229 16.03331416425494
SAOCOM 1A               
1 43641U 18076A   26047.56217885  .00000457  00000+0  64035-4 0  9998
2 43641  97.8872 236.0337 0001378  80.5750 279.5619 14.82145193398231
H-2A R/B                
1 43682U 18084L   26047.56242525  .00021337  00000+0  52324-3 0  9998
2 43682  98.8749 260.4503 0026382  96.1397 264.2852 15.40401200402525
SAOCOM 1B               
1 46265U 20059A   26047.59344278  .00000190  00000+0  30404-4 0  9994
2 46265  97.8869 235.1622 0001439  85.5977 274.5400 14.82146200295625
CSS (TIANHE)            
1 48274U 21035A   26047.46371112  .00029005  00000+0  35509-3 0  9990
2 48274  41.4685 337.2223 0004139 115.2170 244.9098 15.59725445274298
COSMOS 2550             
1 48865U 21056A   26046.73800145 -.00000057  00000+0  41028-5 0  9993
2 48865  67.1426 107.3331 0008396 269.7676  90.2516 15.33826475260090
CZ-2C R/B               
1 52794U 22058K   26047.28483078  .00034476  00000+0  53296-3 0  9994
2 52794  50.1881  68.2641 0042136 109.7074 250.8449 15.52689384206802
